{"type": "FeatureCollection", "features": [ {"type": "Feature", "properties": {"norad_id": 66435, "name": "STARLINK-35502", "group": "last-30-days", "lat": 42.52301896566778, "lon": -161.06749257126924, "alt_km": 409.47048595398064, "timestamp": "2025-12-03T22:42:31.475349+00:00", "meta": {"OBJECT_NAME": "STARLINK-35502", "OBJECT_ID": "2025-259P", "EPOCH": "2025-12-03T12:00:02.998944", "MEAN_MOTION": 15.50635094, "ECCENTRICITY": 0.0001465, "INCLINATION": 43.0002, "RA_OF_ASC_NODE": 101.3231, "ARG_OF_PERICENTER": 280.2919, "MEAN_ANOMALY": 203.7118, "EPHEMERIS_TYPE": 0, "CLASSIFICATION_TYPE": "U", "NORAD_CAT_ID": 66435, "ELEMENT_SET_NO": 999, "REV_AT_EPOCH": 479, "BSTAR": -0.0022906, "MEAN_MOTION_DOT": -0.00132734, "MEAN_MOTION_DDOT": 0}, "tle": {"line1": "1 66435U 25259P   25337.50003471 -.00132734  00000+0 -22906-2 0  9999", "line2": "2 66435  43.0002 101.3231 0001465 280.2919 203.7118 15.50635094  4793"}}, "geometry": {"type": "Point", "coordinates": [-161.06749257126924, 42.52301896566778]}}, {"type": "Feature", "properties": {"norad_id": 66436, "name": "STARLINK-35501", "group": "last-30-days", "lat": 41.94751048224175, "lon": -155.9790652228013, "alt_km": 409.64922179358473, "timestamp": "2025-12-03T22:42:31.475358+00:00", "meta": {"OBJECT_NAME": "STARLINK-35501", "OBJECT_ID": "2025-259Q", "EPOCH": "2025-12-03T12:00:02.998944", "MEAN_MOTION": 15.50626378, "ECCENTRICITY": 0.0001624, "INCLINATION": 43.0001, "RA_OF_ASC_NODE": 101.3131, "ARG_OF_PERICENTER": 258.5423, "MEAN_ANOMALY": 229.301, "EPHEMERIS_TYPE": 0, "CLASSIFICATION_TYPE": "U", "NORAD_CAT_ID": 66436, "ELEMENT_SET_NO": 999, "REV_AT_EPOCH": 479, "BSTAR": -0.0024067, "MEAN_MOTION_DOT": -0.00139286, "MEAN_MOTION_DDOT": 0}, "tle": {"line1": "1 66436U 25259Q   25337.50003471 -.00139286  00000+0 -24067-2 0  9999", "line2": "2 66436  43.0001 101.3131 0001624 258.5423 229.3010 15.50626378  4797"}}, "geometry": {"type": "Point", "coordinates": [-155.9790652228013, 41.94751048224175]}}, {"type": "Feature", "properties": {"norad_id": 66437, "name": "STARLINK-35474", "group": "last-30-days", "lat": 41.57051261996823, "lon": -153.43658418505262, "alt_km": 409.50619035625823, "timestamp": "2025-12-03T22:42:31.475366+00:00", "meta": {"OBJECT_NAME": "STARLINK-35474", "OBJECT_ID": "2025-259R", "EPOCH": "2025-12-03T12:00:02.998944", "MEAN_MOTION": 15.50693299, "ECCENTRICITY": 0.00012, "INCLINATION": 43.0002, "RA_OF_ASC_NODE": 101.3086, "ARG_OF_PERICENTER": 270.44, "MEAN_ANOMALY": 219.2858, "EPHEMERIS_TYPE": 0, "CLASSIFICATION_TYPE": "U", "NORAD_CAT_ID": 66437, "ELEMENT_SET_NO": 999, "REV_AT_EPOCH": 479, "BSTAR": -0.0038237, "MEAN_MOTION_DOT": -0.00219377, "MEAN_MOTION_DDOT": 0}, "tle": {"line1": "1 66437U 25259R   25337.50003471 -.00219377  00000+0 -38237-2 0  9994", "line2": "2 66437  43.0002 101.3086 0001200 270.4400 219.2858 15.50693299  4790"}}, "geometry": {"type": "Point", "coordinates": [-153.43658418505262, 41.57051261996823]}}, {"type": "Feature", "properties": {"norad_id": 66438, "name": "STARLINK-34681", "group": "last-30-days", "lat": 41.14252789771194, "lon": -150.95161174253786, "alt_km": 409.71411491314575, "timestamp": "2025-12-03T22:42:31.475377+00:00", "meta": {"OBJECT_NAME": "STARLINK-34681", "OBJECT_ID": "2025-259S", "EPOCH": "2025-12-03T12:00:02.998944", "MEAN_MOTION": 15.50680423, "ECCENTRICITY": 0.0001434, "INCLINATION": 43.0002, "RA_OF_ASC_NODE": 101.3034, "ARG_OF_PERICENTER": 274.4395, "MEAN_ANOMALY": 217.2064, "EPHEMERIS_TYPE": 0, "CLASSIFICATION_TYPE": "U", "NORAD_CAT_ID": 66438, "ELEMENT_SET_NO": 999, "REV_AT_EPOCH": 468, "BSTAR": -0.0034617, "MEAN_MOTION_DOT": -0.00199063, "MEAN_MOTION_DDOT": 0}, "tle": {"line1": "1 66438U 25259S   25337.50003471 -.00199063  00000+0 -34617-2 0  9992", "line2": "2 66438  43.0002 101.3034 0001434 274.4395 217.2064 15.50680423  4680"}}, "geometry": {"type": "Point", "coordinates": [-150.95161174253786, 41.14252789771194]}}, {"type": "Feature", "properties": {"norad_id": 66439, "name": "STARLINK-35327", "group": "last-30-days", "lat": 42.26261732988679, "lon": -158.5034491996855, "alt_km": 409.49546446706336, "timestamp": "2025-12-03T22:42:31.475387+00:00", "meta": {"OBJECT_NAME": "STARLINK-35327", "OBJECT_ID": "2025-259T", "EPOCH": "2025-12-03T12:00:02.998944", "MEAN_MOTION": 15.5058778, "ECCENTRICITY": 0.0001507, "INCLINATION": 43, "RA_OF_ASC_NODE": 101.3198, "ARG_OF_PERICENTER": 276.9563, "MEAN_ANOMALY": 208.9874, "EPHEMERIS_TYPE": 0, "CLASSIFICATION_TYPE": "U", "NORAD_CAT_ID": 66439, "ELEMENT_SET_NO": 999, "REV_AT_EPOCH": 479, "BSTAR": -0.0011324, "MEAN_MOTION_DOT": -0.00066238, "MEAN_MOTION_DDOT": 0}, "tle": {"line1": "1 66439U 25259T   25337.50003471 -.00066238  00000+0 -11324-2 0  9990", "line2": "2 66439  43.0000 101.3198 0001507 276.9563 208.9874 15.50587780  4795"}}, "geometry": {"type": "Point", "coordinates": [-158.5034491996855, 42.26261732988679]}}, {"type": "Feature", "properties": {"norad_id": 66440, "name": "STARLINK-35405", "group": "last-30-days", "lat": 40.661409677266434, "lon": -148.49875478972749, "alt_km": 409.82721620934717, "timestamp": "2025-12-03T22:42:31.475396+00:00", "meta": {"OBJECT_NAME": "STARLINK-35405", "OBJECT_ID": "2025-259U", "EPOCH": "2025-12-03T12:00:02.998944", "MEAN_MOTION": 15.5065851, "ECCENTRICITY": 0.0001523, "INCLINATION": 43.0002, "RA_OF_ASC_NODE": 101.2992, "ARG_OF_PERICENTER": 277.1084, "MEAN_ANOMALY": 216.4656, "EPHEMERIS_TYPE": 0, "CLASSIFICATION_TYPE": "U", "NORAD_CAT_ID": 66440, "ELEMENT_SET_NO": 999, "REV_AT_EPOCH": 479, "BSTAR": -0.0029219, "MEAN_MOTION_DOT": -0.00168597, "MEAN_MOTION_DDOT": 0}, "tle": {"line1": "1 66440U 25259U   25337.50003471 -.00168597  00000+0 -29219-2 0  9995", "line2": "2 66440  43.0002 101.2992 0001523 277.1084 216.4656 15.50658510  4791"}}, "geometry": {"type": "Point", "coordinates": [-148.49875478972749, 40.661409677266434]}}, {"type": "Feature", "properties": {"norad_id": 66441, "name": "STARLINK-35426", "group": "last-30-days", "lat": 40.12907505601121, "lon": -146.08487211243136, "alt_km": 409.877926698151, "timestamp": "2025-12-03T22:42:31.475405+00:00", "meta": {"OBJECT_NAME": "STARLINK-35426", "OBJECT_ID": "2025-259V", "EPOCH": "2025-12-03T12:00:02.998944", "MEAN_MOTION": 15.50667456, "ECCENTRICITY": 0.0001485, "INCLINATION": 43.0002, "RA_OF_ASC_NODE": 101.2935, "ARG_OF_PERICENTER": 274.8165, "MEAN_ANOMALY": 220.6681, "EPHEMERIS_TYPE": 0, "CLASSIFICATION_TYPE": "U", "NORAD_CAT_ID": 66441, "ELEMENT_SET_NO": 999, "REV_AT_EPOCH": 479, "BSTAR": -0.003119, "MEAN_MOTION_DOT": -0.00179748, "MEAN_MOTION_DDOT": 0}, "tle": {"line1": "1 66441U 25259V   25337.50003471 -.00179748  00000+0 -31190-2 0  9997", "line2": "2 66441  43.0002 101.2935 0001485 274.8165 220.6681 15.50667456  4794"}}, "geometry": {"type": "Point", "coordinates": [-146.08487211243136, 40.12907505601121]}}, {"type": "Feature", "properties": {"norad_id": 66442, "name": "STARLINK-34724", "group": "last-30-days", "lat": 39.54936368770545, "lon": -143.71691676873704, "alt_km": 410.074259346743, "timestamp": "2025-12-03T22:42:31.475414+00:00", "meta": {"OBJECT_NAME": "STARLINK-34724", "OBJECT_ID": "2025-259W", "EPOCH": "2025-12-03T12:00:02.998944", "MEAN_MOTION": 15.50594706, "ECCENTRICITY": 0.0001694, "INCLINATION": 43.0001, "RA_OF_ASC_NODE": 101.2899, "ARG_OF_PERICENTER": 278.9635, "MEAN_ANOMALY": 218.4798, "EPHEMERIS_TYPE": 0, "CLASSIFICATION_TYPE": "U", "NORAD_CAT_ID": 66442, "ELEMENT_SET_NO": 999, "REV_AT_EPOCH": 479, "BSTAR": -0.0015454, "MEAN_MOTION_DOT": -0.00090022, "MEAN_MOTION_DDOT": 0}, "tle": {"line1": "1 66442U 25259W   25337.50003471 -.00090022  00000+0 -15454-2 0  9990", "line2": "2 66442  43.0001 101.2899 0001694 278.9635 218.4798 15.50594706  4793"}}, "geometry": {"type": "Point", "coordinates": [-143.71691676873704, 39.54936368770545]}}, {"type": "Feature", "properties": {"norad_id": 66443, "name": "STARLINK-35219", "group": "last-30-days", "lat": 38.914404441456135, "lon": -141.36306806018345, "alt_km": 409.9150615034814, "timestamp": "2025-12-03T22:42:31.475423+00:00", "meta": {"OBJECT_NAME": "STARLINK-35219", "OBJECT_ID": "2025-259X", "EPOCH": "2025-12-03T12:00:02.998944", "MEAN_MOTION": 15.50566068, "ECCENTRICITY": 0.0001574, "INCLINATION": 43.0001, "RA_OF_ASC_NODE": 101.2849, "ARG_OF_PERICENTER": 274.572, "MEAN_ANOMALY": 224.789, "EPHEMERIS_TYPE": 0, "CLASSIFICATION_TYPE": "U", "NORAD_CAT_ID": 66443, "ELEMENT_SET_NO": 999, "REV_AT_EPOCH": 468, "BSTAR": -7.5803e-05, "MEAN_MOTION_DOT": -4.784e-05, "MEAN_MOTION_DDOT": 0}, "tle": {"line1": "1 66443U 25259X   25337.50003471 -.00004784  00000+0 -75803-4 0  9997", "line2": "2 66443  43.0001 101.2849 0001574 274.5720 224.7890 15.50566068  4684"}}, "geometry": {"type": "Point", "coordinates": [-141.36306806018345, 38.914404441456135]}}, {"type": "Feature", "properties": {"norad_id": 66444, "name": "STARLINK-35360", "group": "last-30-days", "lat": 36.75880087934559, "lon": -134.6242133021231, "alt_km": 410.403069955677, "timestamp": "2025-12-03T22:42:31.475433+00:00", "meta": {"OBJECT_NAME": "STARLINK-35360", "OBJECT_ID": "2025-259Y", "EPOCH": "2025-12-03T12:00:02.998944", "MEAN_MOTION": 15.50678287, "ECCENTRICITY": 0.0001504, "INCLINATION": 43.0002, "RA_OF_ASC_NODE": 101.2693, "ARG_OF_PERICENTER": 276.5622, "MEAN_ANOMALY": 228.5051, "EPHEMERIS_TYPE": 0, "CLASSIFICATION_TYPE": "U", "NORAD_CAT_ID": 66444, "ELEMENT_SET_NO": 999, "REV_AT_EPOCH": 479, "BSTAR": -0.0034362, "MEAN_MOTION_DOT": -0.00197626, "MEAN_MOTION_DDOT": 0}, "tle": {"line1": "1 66444U 25259Y   25337.50003471 -.00197626  00000+0 -34362-2 0  9999", "line2": "2 66444  43.0002 101.2693 0001504 276.5622 228.5051 15.50678287  4799"}}, "geometry": {"type": "Point", "coordinates": [-134.6242133021231, 36.75880087934559]}}]}